{"type": "FeatureCollection", "features": [ {"type": "Feature", "properties": {"norad_id": 34874, "name": "COSMOS 2251 DEB", "group": "cosmos-2251-debris", "lat": -48.16387883761417, "lon": -79.9457691304195, "alt_km": 796.9287635897417, "timestamp": "2025-12-08T13:49:32.189565+00:00", "meta": {"OBJECT_NAME": "COSMOS 2251 DEB", "OBJECT_ID": "1993-036ACM", "EPOCH": "2025-12-08T08:00:43.452000", "MEAN_MOTION": 14.36275823, "ECCENTRICITY": 0.00511977, "INCLINATION": 74.0397, "RA_OF_ASC_NODE": 81.8559, "ARG_OF_PERICENTER": 108.5591, "MEAN_ANOMALY": 309.6959, "EPHEMERIS_TYPE": 0, "CLASSIFICATION_TYPE": "U", "NORAD_CAT_ID": 34874, "ELEMENT_SET_NO": 999, "REV_AT_EPOCH": 86981, "BSTAR": 0.0014716022, "MEAN_MOTION_DOT": 4.341e-05, "MEAN_MOTION_DDOT": 0}, "tle": {"line1": "1 34874U 93036ACM 25342.33383625  .00004341  00000+0  14716-2 0  9998", "line2": "2 34874  74.0397  81.8559 0051197 108.5591 309.6959 14.36275823869810"}}, "geometry": {"type": "Point", "coordinates": [-79.9457691304195, -48.16387883761417]}}, {"type": "Feature", "properties": {"norad_id": 34875, "name": "COSMOS 2251 DEB", "group": "cosmos-2251-debris", "lat": 73.53993323631353, "lon": -89.5373419176146, "alt_km": 732.8215616995212, "timestamp": "2025-12-08T13:49:32.189575+00:00", "meta": {"OBJECT_NAME": "COSMOS 2251 DEB", "OBJECT_ID": "1993-036ACN", "EPOCH": "2025-12-08T05:38:08.080800", "MEAN_MOTION": 14.48901954, "ECCENTRICITY": 0.00160566, "INCLINATION": 74.0434, "RA_OF_ASC_NODE": 166.6548, "ARG_OF_PERICENTER": 290.5282, "MEAN_ANOMALY": 184.2091, "EPHEMERIS_TYPE": 0, "CLASSIFICATION_TYPE": "U", "NORAD_CAT_ID": 34875, "ELEMENT_SET_NO": 999, "REV_AT_EPOCH": 87690, "BSTAR": 0.00072712633, "MEAN_MOTION_DOT": 2.73e-05, "MEAN_MOTION_DDOT": 0}, "tle": {"line1": "1 34875U 93036ACN 25342.23481575  .00002730  00000+0  72713-3 0  9993", "line2": "2 34875  74.0434 166.6548 0016056 290.5282 184.2091 14.48901954876903"}}, "geometry": {"type": "Point", "coordinates": [-89.5373419176146, 73.53993323631353]}}, {"type": "Feature", "properties": {"norad_id": 34878, "name": "COSMOS 2251 DEB", "group": "cosmos-2251-debris", "lat": -12.518599677381182, "lon": 50.26812543864036, "alt_km": 885.5313104940406, "timestamp": "2025-12-08T13:49:32.189586+00:00", "meta": {"OBJECT_NAME": "COSMOS 2251 DEB", "OBJECT_ID": "1993-036ACR", "EPOCH": "2025-12-08T05:05:50.858880", "MEAN_MOTION": 13.44183746, "ECCENTRICITY": 0.04352873, "INCLINATION": 73.9654, "RA_OF_ASC_NODE": 54.5057, "ARG_OF_PERICENTER": 38.9282, "MEAN_ANOMALY": 352.7685, "EPHEMERIS_TYPE": 0, "CLASSIFICATION_TYPE": "U", "NORAD_CAT_ID": 34878, "ELEMENT_SET_NO": 999, "REV_AT_EPOCH": 81212, "BSTAR": 0.00091067154, "MEAN_MOTION_DOT": 9.15e-06, "MEAN_MOTION_DDOT": 0}, "tle": {"line1": "1 34878U 93036ACR 25342.21239420  .00000915  00000+0  91067-3 0  9990", "line2": "2 34878  73.9654  54.5057 0435287  38.9282 352.7685 13.44183746812124"}}, "geometry": {"type": "Point", "coordinates": [50.26812543864036, -12.518599677381182]}}, {"type": "Feature", "properties": {"norad_id": 34882, "name": "COSMOS 2251 DEB", "group": "cosmos-2251-debris", "lat": -25.96452042926255, "lon": 61.55837823244187, "alt_km": 746.0354579855002, "timestamp": "2025-12-08T13:49:32.189596+00:00", "meta": {"OBJECT_NAME": "COSMOS 2251 DEB", "OBJECT_ID": "1993-036ACV", "EPOCH": "2025-12-08T03:01:24.890592", "MEAN_MOTION": 14.6158268, "ECCENTRICITY": 0.00826438, "INCLINATION": 74.0464, "RA_OF_ASC_NODE": 234.4112, "ARG_OF_PERICENTER": 2.5077, "MEAN_ANOMALY": 357.6486, "EPHEMERIS_TYPE": 0, "CLASSIFICATION_TYPE": "U", "NORAD_CAT_ID": 34882, "ELEMENT_SET_NO": 999, "REV_AT_EPOCH": 88457, "BSTAR": 0.00031247398, "MEAN_MOTION_DOT": 1.597e-05, "MEAN_MOTION_DDOT": 0}, "tle": {"line1": "1 34882U 93036ACV 25342.12598253  .00001597  00000+0  31247-3 0  9998", "line2": "2 34882  74.0464 234.4112 0082643   2.5077 357.6486 14.61582680884575"}}, "geometry": {"type": "Point", "coordinates": [61.55837823244187, -25.96452042926255]}}, {"type": "Feature", "properties": {"norad_id": 34883, "name": "COSMOS 2251 DEB", "group": "cosmos-2251-debris", "lat": 45.90406613245396, "lon": 87.47146697331058, "alt_km": 776.8538444509522, "timestamp": "2025-12-08T13:49:32.189606+00:00", "meta": {"OBJECT_NAME": "COSMOS 2251 DEB", "OBJECT_ID": "1993-036ACW", "EPOCH": "2025-12-08T05:19:45.369696", "MEAN_MOTION": 14.51243218, "ECCENTRICITY": 0.00954596, "INCLINATION": 74.1998, "RA_OF_ASC_NODE": 71.1386, "ARG_OF_PERICENTER": 257.1998, "MEAN_ANOMALY": 101.8484, "EPHEMERIS_TYPE": 0, "CLASSIFICATION_TYPE": "U", "NORAD_CAT_ID": 34883, "ELEMENT_SET_NO": 999, "REV_AT_EPOCH": 86374, "BSTAR": 0.0057169955, "MEAN_MOTION_DOT": 0.00024168, "MEAN_MOTION_DDOT": 0}, "tle": {"line1": "1 34883U 93036ACW 25342.22205289  .00024168  00000+0  57170-2 0  9995", "line2": "2 34883  74.1998  71.1386 0095459 257.1998 101.8484 14.51243218863740"}}, "geometry": {"type": "Point", "coordinates": [87.47146697331058, 45.90406613245396]}}, {"type": "Feature", "properties": {"norad_id": 34884, "name": "COSMOS 2251 DEB", "group": "cosmos-2251-debris", "lat": 52.18782101421357, "lon": -136.59167151786292, "alt_km": 592.00082993873, "timestamp": "2025-12-08T13:49:32.189617+00:00", "meta": {"OBJECT_NAME": "COSMOS 2251 DEB", "OBJECT_ID": "1993-036ACX", "EPOCH": "2025-12-08T07:04:18.153120", "MEAN_MOTION": 14.89726124, "ECCENTRICITY": 0.00023057, "INCLINATION": 74.0175, "RA_OF_ASC_NODE": 65.646, "ARG_OF_PERICENTER": 108.1375, "MEAN_ANOMALY": 307.9336, "EPHEMERIS_TYPE": 0, "CLASSIFICATION_TYPE": "U", "NORAD_CAT_ID": 34884, "ELEMENT_SET_NO": 999, "REV_AT_EPOCH": 87739, "BSTAR": 0.0030661277, "MEAN_MOTION_DOT": 0.00029466, "MEAN_MOTION_DDOT": 0}, "tle": {"line1": "1 34884U 93036ACX 25342.29465455  .00029466  00000+0  30661-2 0  9998", "line2": "2 34884  74.0175  65.6460 0002305 108.1375 307.9336 14.89726124877394"}}, "geometry": {"type": "Point", "coordinates": [-136.59167151786292, 52.18782101421357]}}, {"type": "Feature", "properties": {"norad_id": 34885, "name": "COSMOS 2251 DEB", "group": "cosmos-2251-debris", "lat": -43.71678006791364, "lon": 26.752443622181083, "alt_km": 720.192904557066, "timestamp": "2025-12-08T13:49:32.189627+00:00", "meta": {"OBJECT_NAME": "COSMOS 2251 DEB", "OBJECT_ID": "1993-036ACY", "EPOCH": "2025-12-08T00:05:44.047392", "MEAN_MOTION": 14.51465766, "ECCENTRICITY": 0.00153589, "INCLINATION": 74.0306, "RA_OF_ASC_NODE": 191.9382, "ARG_OF_PERICENTER": 277.3487, "MEAN_ANOMALY": 200.5738, "EPHEMERIS_TYPE": 0, "CLASSIFICATION_TYPE": "U", "NORAD_CAT_ID": 34885, "ELEMENT_SET_NO": 999, "REV_AT_EPOCH": 87410, "BSTAR": 0.00086599136, "MEAN_MOTION_DOT": 3.438e-05, "MEAN_MOTION_DDOT": 0}, "tle": {"line1": "1 34885U 93036ACY 25342.00398203  .00003438  00000+0  86599-3 0  9997", "line2": "2 34885  74.0306 191.9382 0015358 277.3487 200.5738 14.51465766874103"}}, "geometry": {"type": "Point", "coordinates": [26.752443622181083, -43.71678006791364]}}, {"type": "Feature", "properties": {"norad_id": 34886, "name": "COSMOS 2251 DEB", "group": "cosmos-2251-debris", "lat": 73.8958841588758, "lon": -75.62980955892775, "alt_km": 439.8257731454396, "timestamp": "2025-12-08T13:49:32.189637+00:00", "meta": {"OBJECT_NAME": "COSMOS 2251 DEB", "OBJECT_ID": "1993-036ACZ", "EPOCH": "2025-12-06T20:50:12.525792", "MEAN_MOTION": 15.37603061, "ECCENTRICITY": 0.00307569, "INCLINATION": 73.9508, "RA_OF_ASC_NODE": 193.7093, "ARG_OF_PERICENTER": 18.7929, "MEAN_ANOMALY": 341.4404, "EPHEMERIS_TYPE": 0, "CLASSIFICATION_TYPE": "U", "NORAD_CAT_ID": 34886, "ELEMENT_SET_NO": 999, "REV_AT_EPOCH": 62908, "BSTAR": 0.0027638496, "MEAN_MOTION_DOT": 0.00105044, "MEAN_MOTION_DDOT": 0}, "tle": {"line1": "1 34886U 93036ACZ 25340.86820053  .00105044  00000+0  27638-2 0  9997", "line2": "2 34886  73.9508 193.7093 0030756  18.7929 341.4404 15.37603061629089"}}, "geometry": {"type": "Point", "coordinates": [-75.62980955892775, 73.8958841588758]}}, {"type": "Feature", "properties": {"norad_id": 34907, "name": "COSMOS 2251 DEB", "group": "cosmos-2251-debris", "lat": -37.05324902693667, "lon": 44.93828293802093, "alt_km": 439.12585944084367, "timestamp": "2025-12-08T13:49:32.189647+00:00", "meta": {"OBJECT_NAME": "COSMOS 2251 DEB", "OBJECT_ID": "1993-036ADC", "EPOCH": "2025-12-08T06:11:55.392000", "MEAN_MOTION": 15.40128137, "ECCENTRICITY": 0.00196578, "INCLINATION": 73.9702, "RA_OF_ASC_NODE": 58.165, "ARG_OF_PERICENTER": 347.8557, "MEAN_ANOMALY": 12.2173, "EPHEMERIS_TYPE": 0, "CLASSIFICATION_TYPE": "U", "NORAD_CAT_ID": 34907, "ELEMENT_SET_NO": 999, "REV_AT_EPOCH": 87904, "BSTAR": 0.0077771011, "MEAN_MOTION_DOT": 0.00327218, "MEAN_MOTION_DDOT": 0}, "tle": {"line1": "1 34907U 93036ADC 25342.25828000  .00327218  00000+0  77771-2 0  9998", "line2": "2 34907  73.9702  58.1650 0019657 347.8557  12.2173 15.40128137879041"}}, "geometry": {"type": "Point", "coordinates": [44.93828293802093, -37.05324902693667]}}, {"type": "Feature", "properties": {"norad_id": 34908, "name": "COSMOS 2251 DEB", "group": "cosmos-2251-debris", "lat": 39.08547402887711, "lon": -162.1159146072364, "alt_km": 763.7831496392373, "timestamp": "2025-12-08T13:49:32.189657+00:00", "meta": {"OBJECT_NAME": "COSMOS 2251 DEB", "OBJECT_ID": "1993-036ADD", "EPOCH": "2025-12-08T03:18:15.253920", "MEAN_MOTION": 14.37377139, "ECCENTRICITY": 0.00399096, "INCLINATION": 74.0591, "RA_OF_ASC_NODE": 32.1132, "ARG_OF_PERICENTER": 49.7569, "MEAN_ANOMALY": 341.1665, "EPHEMERIS_TYPE": 0, "CLASSIFICATION_TYPE": "U", "NORAD_CAT_ID": 34908, "ELEMENT_SET_NO": 999, "REV_AT_EPOCH": 87213, "BSTAR": 0.00070528822, "MEAN_MOTION_DOT": 2.101e-05, "MEAN_MOTION_DDOT": 0}, "tle": {"line1": "1 34908U 93036ADD 25342.13767655  .00002101  00000+0  70529-3 0  9990", "line2": "2 34908  74.0591  32.1132 0039909  49.7569 341.1665 14.37377139872136"}}, "geometry": {"type": "Point", "coordinates": [-162.1159146072364, 39.08547402887711]}}]}